sat12964
1 12964U 81053EK  20046.77853789  .00000024  00000-0  77334-5 0  9990
2 12964  82.9440  44.2420 0039195 164.5686   8.8211 13.80173987929692
